{
  "type": "FeatureCollection",
  "features": [
    {
      "type": "Feature",
      "properties": {
        "norad_id": 66645,
        "name": "SHENZHOU-22",
        "group": "last-30-days",
        "lat": 8.224160896484564,
        "lon": 76.41662197530192,
        "alt_km": 385.2693362182881,
        "timestamp": "2025-12-04T10:51:48.877749+00:00",
        "meta_object_name": "SHENZHOU-22",
        "meta_object_id": "2025-272A",
        "meta_epoch": "2025-12-03T17:53:39.447744",
        "meta_mean_motion": 15.58598848,
        "meta_eccentricity": 0.00100687,
        "meta_inclination": 41.4679,
        "meta_ra_of_asc_node": 71.2873,
        "meta_arg_of_pericenter": 322.1315,
        "meta_mean_anomaly": 37.8814,
        "meta_ephemeris_type": 0,
        "meta_classification_type": "U",
        "meta_norad_cat_id": 66645,
        "meta_element_set_no": 999,
        "meta_rev_at_epoch": 26263,
        "meta_bstar": 0.00035132982,
        "meta_mean_motion_dot": 0.00027527,
        "meta_mean_motion_ddot": 0,
        "tle_line1": "1 66645U 25272A   25337.74559546  .00027527  00000+0  35133-3 0  9990",
        "tle_line2": "2 66645  41.4679  71.2873 0010068 322.1315  37.8814 15.58598848262631"
      },
      "geometry": {
        "type": "Point",
        "coordinates": [
          76.41662197530192,
          8.224160896484564
        ]
      }
    },
    {
      "type": "Feature",
      "properties": {
        "norad_id": 66646,
        "name": "CZ-2F R/B",
        "group": "last-30-days",
        "lat": 35.87161253063583,
        "lon": -172.0871687886412,
        "alt_km": 229.1888410527872,
        "timestamp": "2025-12-04T10:51:48.877759+00:00",
        "meta_object_name": "CZ-2F R/B",
        "meta_object_id": "2025-272B",
        "meta_epoch": "2025-11-26T11:17:54.506400",
        "meta_mean_motion": 16.01945612,
        "meta_eccentricity": 0.01210796,
        "meta_inclination": 41.4431,
        "meta_ra_of_asc_node": 114.9009,
        "meta_arg_of_pericenter": 133.7676,
        "meta_mean_anomaly": 227.3272,
        "meta_ephemeris_type": 0,
        "meta_classification_type": "U",
        "meta_norad_cat_id": 66646,
        "meta_element_set_no": 999,
        "meta_rev_at_epoch": 21,
        "meta_bstar": 0.00029319366,
        "meta_mean_motion_dot": 0.00449059,
        "meta_mean_motion_ddot": 7.567612e-06,
        "tle_line1": "1 66646U 25272B   25330.47076975  .00449059  75676-5  29319-3 0  9998",
        "tle_line2": "2 66646  41.4431 114.9009 0121079 133.7676 227.3272 16.01945612   217"
      },
      "geometry": {
        "type": "Point",
        "coordinates": [
          -172.0871687886412,
          35.87161253063583
        ]
      }
    },
    {
      "type": "Feature",
      "properties": {
        "norad_id": 66647,
        "name": "COSMOS 2597 (RODNIK-S 22)",
        "group": "last-30-days",
        "lat": 24.533912429983815,
        "lon": 108.14807353650008,
        "alt_km": 1503.175309116541,
        "timestamp": "2025-12-04T10:51:48.877771+00:00",
        "meta_object_name": "COSMOS 2597 (RODNIK-S 22)",
        "meta_object_id": "2025-273A",
        "meta_epoch": "2025-12-04T04:13:48.642816",
        "meta_mean_motion": 12.41950973,
        "meta_eccentricity": 0.0008119,
        "meta_inclination": 82.4982,
        "meta_ra_of_asc_node": 291.7674,
        "meta_arg_of_pericenter": 309.2024,
        "meta_mean_anomaly": 50.8333,
        "meta_ephemeris_type": 0,
        "meta_classification_type": "U",
        "meta_norad_cat_id": 66647,
        "meta_element_set_no": 999,
        "meta_rev_at_epoch": 107,
        "meta_bstar": -0.00015287,
        "meta_mean_motion_dot": -1.1e-07,
        "meta_mean_motion_ddot": 0,
        "tle_line1": "1 66647U 25273A   25338.17625744 -.00000011  00000+0 -15287-3 0  9994",
        "tle_line2": "2 66647  82.4982 291.7674 0008119 309.2024  50.8333 12.41950973  1070"
      },
      "geometry": {
        "type": "Point",
        "coordinates": [
          108.14807353650008,
          24.533912429983815
        ]
      }
    },
    {
      "type": "Feature",
      "properties": {
        "norad_id": 66648,
        "name": "COSMOS 2598 (RODNIK-S 23)",
        "group": "last-30-days",
        "lat": 15.085167013502385,
        "lon": 109.5674510217455,
        "alt_km": 1501.9948075014245,
        "timestamp": "2025-12-04T10:51:48.877783+00:00",
        "meta_object_name": "COSMOS 2598 (RODNIK-S 23)",
        "meta_object_id": "2025-273B",
        "meta_epoch": "2025-12-04T04:10:49.408608",
        "meta_mean_motion": 12.42253094,
        "meta_eccentricity": 0.000821,
        "meta_inclination": 82.5023,
        "meta_ra_of_asc_node": 291.7744,
        "meta_arg_of_pericenter": 297.7809,
        "meta_mean_anomaly": 62.2438,
        "meta_ephemeris_type": 0,
        "meta_classification_type": "U",
        "meta_norad_cat_id": 66648,
        "meta_element_set_no": 999,
        "meta_rev_at_epoch": 107,
        "meta_bstar": 5.4042e-05,
        "meta_mean_motion_dot": 1.7e-07,
        "meta_mean_motion_ddot": 0,
        "tle_line1": "1 66648U 25273B   25338.17418297  .00000017  00000+0  54042-4 0  9995",
        "tle_line2": "2 66648  82.5023 291.7744 0008210 297.7809  62.2438 12.42253094  1074"
      },
      "geometry": {
        "type": "Point",
        "coordinates": [
          109.5674510217455,
          15.085167013502385
        ]
      }
    },
    {
      "type": "Feature",
      "properties": {
        "norad_id": 66649,
        "name": "COSMOS 2599 (RODNIK-S 24)",
        "group": "last-30-days",
        "lat": 33.25508855843041,
        "lon": 106.65377348207312,
        "alt_km": 1503.794378564743,
        "timestamp": "2025-12-04T10:51:48.877794+00:00",
        "meta_object_name": "COSMOS 2599 (RODNIK-S 24)",
        "meta_object_id": "2025-273C",
        "meta_epoch": "2025-12-04T04:16:34.426272",
        "meta_mean_motion": 12.41671767,
        "meta_eccentricity": 0.0008336,
        "meta_inclination": 82.5023,
        "meta_ra_of_asc_node": 291.7777,
        "meta_arg_of_pericenter": 319.5382,
        "meta_mean_anomaly": 40.5076,
        "meta_ephemeris_type": 0,
        "meta_classification_type": "U",
        "meta_norad_cat_id": 66649,
        "meta_element_set_no": 999,
        "meta_rev_at_epoch": 107,
        "meta_bstar": -8.1605e-05,
        "meta_mean_motion_dot": -1e-08,
        "meta_mean_motion_ddot": 0,
        "tle_line1": "1 66649U 25273C   25338.17817623 -.00000001  00000+0 -81605-4 0  9992",
        "tle_line2": "2 66649  82.5023 291.7777 0008336 319.5382  40.5076 12.41671767  1076"
      },
      "geometry": {
        "type": "Point",
        "coordinates": [
          106.65377348207312,
          33.25508855843041
        ]
      }
    },
    {
      "type": "Feature",
      "properties": {
        "norad_id": 66650,
        "name": "2025-274A",
        "group": "last-30-days",
        "lat": 78.48720914151768,
        "lon": 127.67578941887591,
        "alt_km": 592.800512814083,
        "timestamp": "2025-12-04T10:51:48.877804+00:00",
        "meta_object_name": "2025-274A",
        "meta_object_id": "2025-274A",
        "meta_epoch": "2025-12-04T00:45:47.106144",
        "meta_mean_motion": 14.91614176,
        "meta_eccentricity": 0.0010407,
        "meta_inclination": 97.7385,
        "meta_ra_of_asc_node": 265.3799,
        "meta_arg_of_pericenter": 285.2129,
        "meta_mean_anomaly": 74.7939,
        "meta_ephemeris_type": 0,
        "meta_classification_type": "U",
        "meta_norad_cat_id": 66650,
        "meta_element_set_no": 999,
        "meta_rev_at_epoch": 110,
        "meta_bstar": 0.00036384,
        "meta_mean_motion_dot": 3.6e-05,
        "meta_mean_motion_ddot": 0,
        "tle_line1": "1 66650U 25274A   25338.03179521  .00003600  00000+0  36384-3 0  9997",
        "tle_line2": "2 66650  97.7385 265.3799 0010407 285.2129  74.7939 14.91614176  1107"
      },
      "geometry": {
        "type": "Point",
        "coordinates": [
          127.67578941887591,
          78.48720914151768
        ]
      }
    },
    {
      "type": "Feature",
      "properties": {
        "norad_id": 66651,
        "name": "2025-274B",
        "group": "last-30-days",
        "lat": 77.18041741905876,
        "lon": 122.48779111440288,
        "alt_km": 592.8210785563651,
        "timestamp": "2025-12-04T10:51:48.877814+00:00",
        "meta_object_name": "2025-274B",
        "meta_object_id": "2025-274B",
        "meta_epoch": "2025-12-04T00:45:21.574080",
        "meta_mean_motion": 14.91692437,
        "meta_eccentricity": 0.0010679,
        "meta_inclination": 97.7381,
        "meta_ra_of_asc_node": 265.3798,
        "meta_arg_of_pericenter": 284.831,
        "meta_mean_anomaly": 75.1726,
        "meta_ephemeris_type": 0,
        "meta_classification_type": "U",
        "meta_norad_cat_id": 66651,
        "meta_element_set_no": 999,
        "meta_rev_at_epoch": 110,
        "meta_bstar": 0.00075013,
        "meta_mean_motion_dot": 7.502e-05,
        "meta_mean_motion_ddot": 0,
        "tle_line1": "1 66651U 25274B   25338.03149970  .00007502  00000+0  75013-3 0  9990",
        "tle_line2": "2 66651  97.7381 265.3798 0010679 284.8310  75.1726 14.91692437  1106"
      },
      "geometry": {
        "type": "Point",
        "coordinates": [
          122.48779111440288,
          77.18041741905876
        ]
      }
    }
  ]
}